STARLINK-35496          
1 66114U 25237A   25322.83335647 -.01438107  00000+0 -38371-1 0  9998
2 66114  53.1598 200.1231 0000890 100.5043 101.2641 15.40592049  5638
STARLINK-35428          
1 66115U 25237B   25322.83335647  .00000682  00000+0  27037-4 0  9999
2 66115  53.1596 200.2754 0001487 106.9384  18.0669 15.39618537  5633
STARLINK-35573          
1 66116U 25237C   25322.40436389  .00101610  00000+0  18139-2 0  9992
2 66116  53.1611 202.1102 0002431  37.3147 322.8030 15.49267070  5499
STARLINK-35572          
1 66117U 25237D   25322.83335647  .00001600  00000+0  49972-4 0  9994
2 66117  53.1600 200.2243 0001101  99.0320  51.7345 15.39613938  5634
STARLINK-35468          
1 66118U 25237E   25322.83335647  .00003980  00000+0  10944-3 0  9994
2 66118  53.1593 200.3263 0001288 102.3867 356.8713 15.39613083  5638
STARLINK-35547          
1 66119U 25237F   25320.91892887  .00112881  00000+0  20069-2 0  9995
2 66119  53.1599 209.1905 0000836  83.5831 276.5273 15.49330623  5269
STARLINK-35553          
1 66120U 25237G   25322.83335647  .00002895  00000+0  82369-4 0  9992
2 66120  53.1602 200.1728 0001369  91.1084  85.4312 15.39609755  5633
STARLINK-35631          
1 66121U 25237H   25322.66098932  .00084837  00000+0  15126-2 0  9998
2 66121  53.1604 200.8648 0001417  82.2728 277.8442 15.49390297  5533
STARLINK-35653          
1 66122U 25237J   25322.40227762  .00076270  00000+0  13643-2 0  9990
2 66122  53.1594 202.0956 0001591  76.7365 283.3821 15.49344281  5496
STARLINK-35628          
1 66123U 25237K   25322.40193213  .00079165  00000+0  14149-2 0  9992
2 66123  53.1619 202.0927 0000833  71.7093 288.4007 15.49352724  5497
STARLINK-35645          
1 66124U 25237L   25322.65962103  .00085487  00000+0  15246-2 0  9995
2 66124  53.1609 200.8578 0001123  82.1195 277.9942 15.49378347  5532
STARLINK-35649          
1 66125U 25237M   25322.65927705  .00093651  00000+0  16674-2 0  9993
2 66125  53.1607 200.8545 0001218 307.9693  52.1206 15.49384188  5537
STARLINK-35658          
1 66126U 25237N   25322.40090351  .00065732  00000+0  11787-2 0  9994
2 66126  53.1608 202.0843 0001452  89.5757 270.5419 15.49338659  5497
STARLINK-35629          
1 66127U 25237P   25322.40055931  .00073974  00000+0  13239-2 0  9991
2 66127  53.1612 202.0838 0001214  76.2430 283.8714 15.49343607  5498
STARLINK-35612          
1 66128U 25237Q   25322.83335647  .00002984  00000+0  84572-4 0  9997
2 66128  53.1597 200.2753 0001019 105.0565  18.0889 15.39613671  5637
STARLINK-35632          
1 66129U 25237R   25322.83335647  .00001553  00000+0  48797-4 0  9998
2 66129  53.1599 200.2241 0001199 104.8340  44.0594 15.39617295  5637
STARLINK-35637          
1 66130U 25237S   25322.83335647  .00004763  00000+0  12894-3 0  9994
2 66130  53.1603 200.1729 0000873  43.2683 131.3434 15.39629084  5631
STARLINK-35630          
1 66131U 25237T   25322.83335647  .00005746  00000+0  15352-3 0  9999
2 66131  53.1602 200.1221 0001007 121.4980  78.8930 15.39620225  5631
STARLINK-34412          
1 66132U 25237U   25322.83335647  .00016688  00000+0  42673-3 0  9993
2 66132  53.1603 200.0708 0001197  94.6905 131.5046 15.39587096  5543
STARLINK-35520          
1 66133U 25237V   25322.83335647 -.01948691  00000+0 -49514-1 0  9994
2 66133  53.1604 200.0260 0001644  91.4182 157.1540 15.42497127  5639
STARLINK-35525          
1 66134U 25237W   25321.94659798  .00078823  00000+0  14103-2 0  9997
2 66134  53.1597 204.2250 0001173  68.5897 291.5237 15.49323795  5420
STARLINK-34852          
1 66135U 25237X   25321.94625525  .00078244  00000+0  14002-2 0  9994
2 66135  53.1598 204.2215 0001227  69.0753 291.0387 15.49321453  5385
STARLINK-35592          
1 66136U 25237Y   25322.65549948  .00093164  00000+0  16588-2 0  9997
2 66136  53.1601 200.8278 0001486  89.2516 270.8663 15.49385594  5535
STARLINK-35576          
1 66137U 25237Z   25322.65515595  .00092382  00000+0  16452-2 0  9990
2 66137  53.1592 200.8245 0001517  77.9440 282.1739 15.49383120  5537
STARLINK-35623          
1 66138U 25237AA  25322.39680215  .00097057  00000+0  17318-2 0  9990
2 66138  53.1605 202.0572 0001566  77.8409 282.2775 15.49304300  5497
STARLINK-35549          
1 66139U 25237AB  25322.39609492  .00066927  00000+0  11999-2 0  9990
2 66139  53.1600 202.0511 0001270  92.8666 267.2488 15.49338501  5494
STARLINK-35625          
1 66140U 25237AC  25321.94488074  .00065448  00000+0  11744-2 0  9998
2 66140  53.1600 204.2130 0001088  73.3950 286.7179 15.49323874  5427
STARLINK-35603          
1 66141U 25237AD  25322.65378282  .00071535  00000+0  12799-2 0  9992
2 66141  53.1602 200.8170 0001245  68.1847 291.9294 15.49365873  5531
TJS-20                  
1 66142U 25238A   25322.60373796  .00000036  00000+0  00000+0 0  9991
2 66142   5.9418 300.4272 0001401 103.8430 293.4849  1.00269624   224
CZ-5 R/B                
1 66143U 25238B   25322.71890617  .00070708  11074-5  17618-2 0  9998
2 66143  16.2773 264.6025 7588083 180.4543 178.0691  1.94652517   526
SPAINSAT NG II          
1 66144U 25239A   25321.84156370 -.00000354  00000+0  00000+0 0  9990
2 66144  19.9038 243.4991 7869625 184.0240 159.6654  1.04198281   298
STARLINK-35318          
1 66146U 25240A   25322.83335647  .00008914  00000+0  23261-3 0  9997
2 66146  53.1605 219.3671 0001393  62.4784 265.0211 15.39613485  5109
STARLINK-33948          
1 66147U 25240B   25322.81957912  .00063935  00000+0  11471-2 0  9994
2 66147  53.1594 219.2159 0001732 132.4755 227.6401 15.49335185  5047
STARLINK-35081          
1 66148U 25240C   25322.81414171  .00046783  00000+0  79279-3 0  9993
2 66148  53.1594 219.1814 0000802 132.1279 227.9799 15.51087949  4991
STARLINK-35601          
1 66149U 25240D   25322.83335647 -.00420589  00000+0 -11003-1 0  9997
2 66149  53.1598 219.2061 0001237 109.4826 298.8893 15.39871816  5060
STARLINK-35605          
1 66150U 25240E   25322.81855117  .00082454  00000+0  14742-2 0  9993
2 66150  53.1593 219.2097 0001284  97.0937 263.0218 15.49323679  4999
STARLINK-35540          
1 66151U 25240F   25322.81820453  .00106857  00000+0  19008-2 0  9993
2 66151  53.1594 219.2066 0000892  95.6122 264.4989 15.49343799  4996
STARLINK-35455          
1 66152U 25240G   25322.83335647  .00002407  00000+0  70137-4 0  9990
2 66152  53.1603 219.3149 0001357  99.6539 253.5921 15.39620113  5065
STARLINK-34752          
1 66153U 25240H   25322.83335647 -.01764905  00000+0 -44319-1 0  9992
2 66153  53.1600 219.1617 0000738 124.9836 305.6776 15.42528083  5069
STARLINK-34625          
1 66154U 25240J   25322.81717705  .00079208  00000+0  14165-2 0  9999
2 66154  53.1594 219.2007 0001213  97.4697 262.6450 15.49334591  5049
STARLINK-35580          
1 66155U 25240K   25322.81683501  .00073816  00000+0  13221-2 0  9997
2 66155  53.1594 219.1966 0001251 106.1823 253.9323 15.49324070  4990
STARLINK-35621          
1 66156U 25240L   25322.83335647 -.02015849  00000+0 -46906-1 0  9996
2 66156  53.1596 219.1273 0000824 101.8761 345.6650 15.45198424  5061
STARLINK-35594          
1 66157U 25240M   25322.81615630  .00080373  00000+0  14352-2 0  9999
2 66157  53.1594 219.1920 0001275  86.2392 273.8763 15.49370861  4995
STARLINK-35587          
1 66158U 25240N   25322.83335647  .00001642  00000+0  51016-4 0  9991
2 66158  53.1599 219.2545 0000856  96.4565 286.2490 15.39615804  5066
STARLINK-35586          
1 66159U 25240P   25322.81545937  .00055456  00000+0  99748-3 0  9990
2 66159  53.1593 219.1870 0001235  96.3277 263.7872 15.49326264  4997
STARLINK-35636          
1 66160U 25240Q   25322.83335647  .00000544  00000+0  23577-4 0  9995
2 66160  53.1600 219.2575 0001455  98.4445 282.3896 15.39622072  5062
STARLINK-35635          
1 66161U 25240R   25322.83335647  .00012340  00000+0  31807-3 0  9997
2 66161  53.1604 219.3083 0001637  91.7623 263.3202 15.39612267  5063
STARLINK-35633          
1 66162U 25240S   25322.83335647  .00030485  00000+0  55466-3 0  9995
2 66162  53.1604 218.7438 0000912  89.3075 188.0564 15.49276706  5069
STARLINK-35607          
1 66163U 25240T   25322.83335647  .00029181  00000+0  53136-3 0  9999
2 66163  53.1605 218.7401 0000946  88.7767 190.5052 15.49276937  5065
STARLINK-35614          
1 66164U 25240U   25322.83335647  .00033547  00000+0  60939-3 0  9990
2 66164  53.1604 218.7306 0001363  88.1357 194.9824 15.49273728  5062
STARLINK-35575          
1 66165U 25240V   25322.83335647 -.00081794  00000+0 -14763-2 0  9993
2 66165  53.1605 218.7355 0001350  90.7459 190.4323 15.49340282  5061
STARLINK-35624          
1 66166U 25240W   25322.83335647  .00029704  00000+0  54072-3 0  9993
2 66166  53.1605 218.7239 0000767  95.8838 191.0664 15.49275761  5065
STARLINK-35641          
1 66167U 25240X   25322.83335647  .00065304  00000+0  11745-2 0  9999
2 66167  53.1602 218.7275 0000735 101.9417 183.1003 15.49260052  5066
STARLINK-35578          
1 66168U 25240Y   25322.83335647  .00033756  00000+0  61316-3 0  9996
2 66168  53.1604 218.7116 0000798  87.7972 204.9087 15.49271860  5062
STARLINK-35638          
1 66169U 25240Z   25322.83335647  .00031066  00000+0  56504-3 0  9992
2 66169  53.1604 218.7190 0001273  88.3780 200.4874 15.49276384  5069
STARLINK-35585          
1 66170U 25240AA  25322.83335647  .00028127  00000+0  51251-3 0  9992
2 66170  53.1604 218.7077 0001328  86.7899 207.8250 15.49278154  5065
STARLINK-35606          
1 66171U 25240AB  25322.83335647  .00028152  00000+0  51297-3 0  9991
2 66171  53.1604 218.7034 0000895  96.0221 200.5113 15.49277021  5060
STARLINK-35627          
1 66172U 25240AC  25322.83335647  .00028708  00000+0  52294-3 0  9997
2 66172  53.1604 218.7154 0000724  98.2947 192.4908 15.49276027  5060
STARLINK-35634          
1 66173U 25240AD  25322.83335647  .00034686  00000+0  62972-3 0  9994
2 66173  53.1603 218.6994 0000854  94.1106 204.3409 15.49273568  5063
HTV-X1                  
